start=new Date('2023-04-14T00:00:00.000Z').valueOf();
sats=[{"RCS_SIZE":"LARGE","TLE_LINE1":"1 54073U 22136Y   23103.61413150  .00001214  00000-0  94358-4 0  9994","MEAN_MOTION":"15.08842795","PERIAPSIS":"538.924","EPHEMERIS_TYPE":"0","ARG_OF_PERICENTER":"87.9529","MEAN_MOTION_DDOT":"0.0000000000000","OBJECT_TYPE":"PAYLOAD","FILE":"3886943","PERIOD":"95.437","MEAN_MOTION_DOT":"0.00001214","INCLINATION":"53.2182","BSTAR":"0.00009435800000","MEAN_ELEMENT_THEORY":"SGP4","CENTER_NAME":"EARTH","COUNTRY_CODE":"US","ELEMENT_SET_NO":"999","RA_OF_ASC_NODE":"62.7619","NORAD_CAT_ID":"54073","EPOCH":"2023-04-13T14:44:20.961600","CLASSIFICATION_TYPE":"U","LAUNCH_DATE":"2022-10-20","SITE":"AFETR","OBJECT_NAME":"STARLINK-5146","TLE_LINE2":"2 54073  53.2182  62.7619 0001175  87.9529 272.1598 15.08842795 27201","OBJECT_ID":"2022-136Y","DECAY_DATE":null,"GP_ID":"230026787","REV_AT_EPOCH":"2720","SEMIMAJOR_AXIS":"6917.872","MEAN_ANOMALY":"272.1598","TIME_SYSTEM":"UTC","APOAPSIS":"540.550","ECCENTRICITY":"0.00011750","REF_FRAME":"TEME"},{"ELEMENT_SET_NO":"999","RA_OF_ASC_NODE":"67.0682","CENTER_NAME":"EARTH","COUNTRY_CODE":"US","BSTAR":"0.00005753000000","MEAN_ELEMENT_THEORY":"SGP4","MEAN_MOTION_DOT":"0.00000628","INCLINATION":"53.2194","PERIOD":"95.437","OBJECT_TYPE":"PAYLOAD","FILE":"3886943","MEAN_MOTION_DDOT":"0.0000000000000","EPHEMERIS_TYPE":"0","ARG_OF_PERICENTER":"80.3346","TLE_LINE1":"1 54074U 22136Z   23103.61815709  .00000628  00000-0  57530-4 0  9990","MEAN_MOTION":"15.08841568","RCS_SIZE":"LARGE","PERIAPSIS":"538.790","REF_FRAME":"TEME","ECCENTRICITY":"0.00013740","APOAPSIS":"540.691","MEAN_ANOMALY":"279.7801","TIME_SYSTEM":"UTC","REV_AT_EPOCH":"2714","GP_ID":"230026286","SEMIMAJOR_AXIS":"6917.876","DECAY_DATE":null,"TLE_LINE2":"2 54074  53.2194  67.0682 0001374  80.3346 279.7801 15.08841568 27148","OBJECT_ID":"2022-136Z","OBJECT_NAME":"STARLINK-5192","LAUNCH_DATE":"2022-10-20","SITE":"AFETR","CLASSIFICATION_TYPE":"U","EPOCH":"2023-04-13T14:50:08.772576","NORAD_CAT_ID":"54074"},{"ELEMENT_SET_NO":"999","RA_OF_ASC_NODE":"63.7905","CENTER_NAME":"EARTH","COUNTRY_CODE":"US","BSTAR":"0.00008236200000","MEAN_ELEMENT_THEORY":"SGP4","MEAN_MOTION_DOT":"0.00001023","INCLINATION":"53.2187","PERIOD":"95.437","OBJECT_TYPE":"PAYLOAD","FILE":"3886943","MEAN_MOTION_DDOT":"0.0000000000000","ARG_OF_PERICENTER":"93.3748","EPHEMERIS_TYPE":"0","TLE_LINE1":"1 54075U 22136AA  23103.32337850  .00001023  00000-0  82362-4 0  9996","MEAN_MOTION":"15.08840927","RCS_SIZE":"LARGE","PERIAPSIS":"538.987","REF_FRAME":"TEME","ECCENTRICITY":"0.00010920","APOAPSIS":"540.498","MEAN_ANOMALY":"266.7369","TIME_SYSTEM":"UTC","GP_ID":"230026294","REV_AT_EPOCH":"2716","SEMIMAJOR_AXIS":"6917.878","DECAY_DATE":null,"OBJECT_ID":"2022-136AA","TLE_LINE2":"2 54075  53.2187  63.7905 0001092  93.3748 266.7369 15.08840927 27164","OBJECT_NAME":"STARLINK-5212","SITE":"AFETR","LAUNCH_DATE":"2022-10-20","CLASSIFICATION_TYPE":"U","EPOCH":"2023-04-13T07:45:39.902400","NORAD_CAT_ID":"54075"},{"CLASSIFICATION_TYPE":"U","SITE":"AFETR","LAUNCH_DATE":"2022-10-20","NORAD_CAT_ID":"54076","EPOCH":"2023-04-13T14:44:50.327232","OBJECT_NAME":"STARLINK-5201","GP_ID":"230026789","REV_AT_EPOCH":"2714","SEMIMAJOR_AXIS":"6917.884","MEAN_ANOMALY":"272.7908","TIME_SYSTEM":"UTC","TLE_LINE2":"2 54076  53.2170  67.0496 0001457  87.3250 272.7908 15.08838903 27140","OBJECT_ID":"2022-136AB","DECAY_DATE":null,"ECCENTRICITY":"0.00014570","REF_FRAME":"TEME","APOAPSIS":"540.757","TLE_LINE1":"1 54076U 22136AB  23103.61447138  .00000702  00000-0  62167-4 0  9994","RCS_SIZE":"LARGE","MEAN_MOTION":"15.08838903","PERIAPSIS":"538.741","ARG_OF_PERICENTER":"87.3250","EPHEMERIS_TYPE":"0","MEAN_MOTION_DDOT":"0.0000000000000","PERIOD":"95.438","MEAN_MOTION_DOT":"0.00000702","INCLINATION":"53.2170","OBJECT_TYPE":"PAYLOAD","FILE":"3886943","CENTER_NAME":"EARTH","COUNTRY_CODE":"US","ELEMENT_SET_NO":"999","RA_OF_ASC_NODE":"67.0496","BSTAR":"0.00006216700000","MEAN_ELEMENT_THEORY":"SGP4"},{"TIME_SYSTEM":"UTC","MEAN_ANOMALY":"281.6400","SEMIMAJOR_AXIS":"6917.890","GP_ID":"230026296","REV_AT_EPOCH":"2743","DECAY_DATE":null,"TLE_LINE2":"2 54077  53.2188  46.8753 0001391  78.4749 281.6400 15.08836921 27438","OBJECT_ID":"2022-136AC","REF_FRAME":"TEME","ECCENTRICITY":"0.00013910","APOAPSIS":"540.717","LAUNCH_DATE":"2022-10-20","SITE":"AFETR","CLASSIFICATION_TYPE":"U","EPOCH":"2023-04-13T16:40:11.178912","NORAD_CAT_ID":"54077","OBJECT_NAME":"STARLINK-5171","INCLINATION":"53.2188","MEAN_MOTION_DOT":"0.00001769","PERIOD":"95.438","FILE":"3886943","OBJECT_TYPE":"PAYLOAD","RA_OF_ASC_NODE":"46.8753","ELEMENT_SET_NO":"999","COUNTRY_CODE":"US","CENTER_NAME":"EARTH","MEAN_ELEMENT_THEORY":"SGP4","BSTAR":"0.00012920000000","PERIAPSIS":"538.793","TLE_LINE1":"1 54077U 22136AC  23103.69457383  .00001769  00000-0  12920-3 0  9991","MEAN_MOTION":"15.08836921","RCS_SIZE":"LARGE","MEAN_MOTION_DDOT":"0.0000000000000","ARG_OF_PERICENTER":"78.4749","EPHEMERIS_TYPE":"0"},{"OBJECT_NAME":"STARLINK-5138","LAUNCH_DATE":"2022-10-20","SITE":"AFETR","CLASSIFICATION_TYPE":"U","EPOCH":"2023-04-13T03:09:27.837216","NORAD_CAT_ID":"54078","REF_FRAME":"TEME","ECCENTRICITY":"0.00009080","APOAPSIS":"540.371","TIME_SYSTEM":"UTC","MEAN_ANOMALY":"280.6249","SEMIMAJOR_AXIS":"6917.878","GP_ID":"230016697","REV_AT_EPOCH":"2686","DECAY_DATE":null,"OBJECT_ID":"2022-136AD","TLE_LINE2":"2 54078  53.2201  49.7614 0000908  79.4846 280.6249 15.08840797 26867","MEAN_MOTION_DDOT":"0.0000000000000","EPHEMERIS_TYPE":"0","ARG_OF_PERICENTER":"79.4846","PERIAPSIS":"539.115","TLE_LINE1":"1 54078U 22136AD  23103.13157219  .00002781  00000-0  19272-3 0  9998","RCS_SIZE":"LARGE","MEAN_MOTION":"15.08840797","RA_OF_ASC_NODE":"49.7614","ELEMENT_SET_NO":"999","COUNTRY_CODE":"US","CENTER_NAME":"EARTH","MEAN_ELEMENT_THEORY":"SGP4","BSTAR":"0.00019272000000","INCLINATION":"53.2201","MEAN_MOTION_DOT":"0.00002781","PERIOD":"95.438","FILE":"3886564","OBJECT_TYPE":"PAYLOAD"},{"EPOCH":"2023-04-13T14:35:40.380000","NORAD_CAT_ID":"54079","LAUNCH_DATE":"2022-10-20","SITE":"AFETR","CLASSIFICATION_TYPE":"U","OBJECT_NAME":"STARLINK-5175","DECAY_DATE":null,"TLE_LINE2":"2 54079  53.2183  57.7243 0001245  75.4043 284.7087 15.08847653 27273","OBJECT_ID":"2022-136AE","TIME_SYSTEM":"UTC","MEAN_ANOMALY":"284.7087","SEMIMAJOR_AXIS":"6917.857","GP_ID":"230026792","REV_AT_EPOCH":"2727","APOAPSIS":"540.583","REF_FRAME":"TEME","ECCENTRICITY":"0.00012450","PERIAPSIS":"538.861","TLE_LINE1":"1 54079U 22136AE  23103.60810625  .00004906  00000-0  32602-3 0  9991","RCS_SIZE":"LARGE","MEAN_MOTION":"15.08847653","MEAN_MOTION_DDOT":"0.0000000000000","ARG_OF_PERICENTER":"75.4043","EPHEMERIS_TYPE":"0","FILE":"3886943","OBJECT_TYPE":"PAYLOAD","INCLINATION":"53.2183","MEAN_MOTION_DOT":"0.00004906","PERIOD":"95.437","MEAN_ELEMENT_THEORY":"SGP4","BSTAR":"0.00032602000000","RA_OF_ASC_NODE":"57.7243","ELEMENT_SET_NO":"999","COUNTRY_CODE":"US","CENTER_NAME":"EARTH"},{"APOAPSIS":"540.824","ECCENTRICITY":"0.00018510","REF_FRAME":"TEME","TLE_LINE2":"2 54080  53.2175  64.9580 0001851 100.1991 259.9210 15.08905990 27137","OBJECT_ID":"2022-136AF","DECAY_DATE":null,"REV_AT_EPOCH":"2713","GP_ID":"230026297","SEMIMAJOR_AXIS":"6917.679","MEAN_ANOMALY":"259.9210","TIME_SYSTEM":"UTC","OBJECT_NAME":"STARLINK-5160","NORAD_CAT_ID":"54080","EPOCH":"2023-04-13T04:03:08.114688","CLASSIFICATION_TYPE":"U","SITE":"AFETR","LAUNCH_DATE":"2022-10-20","BSTAR":"0.00110410000000","MEAN_ELEMENT_THEORY":"SGP4","CENTER_NAME":"EARTH","COUNTRY_CODE":"US","ELEMENT_SET_NO":"999","RA_OF_ASC_NODE":"64.9580","OBJECT_TYPE":"PAYLOAD","FILE":"3886943","PERIOD":"95.433","MEAN_MOTION_DOT":"0.00017359","INCLINATION":"53.2175","ARG_OF_PERICENTER":"100.1991","EPHEMERIS_TYPE":"0","MEAN_MOTION_DDOT":"0.0000000000000","MEAN_MOTION":"15.08905990","TLE_LINE1":"1 54080U 22136AF  23103.16884392  .00017359  00000-0  11041-2 0  9995","RCS_SIZE":"LARGE","PERIAPSIS":"538.263"},{"BSTAR":"0.00034637000000","MEAN_ELEMENT_THEORY":"SGP4","ELEMENT_SET_NO":"999","RA_OF_ASC_NODE":"59.1631","CENTER_NAME":"EARTH","COUNTRY_CODE":"US","OBJECT_TYPE":"PAYLOAD","FILE":"3886943","MEAN_MOTION_DOT":"0.00005230","INCLINATION":"53.2180","PERIOD":"95.437","MEAN_MOTION_DDOT":"0.0000000000000","ARG_OF_PERICENTER":"87.0244","EPHEMERIS_TYPE":"0","TLE_LINE1":"1 54081U 22136AG  23103.26953948  .00005230  00000-0  34637-3 0  9993","MEAN_MOTION":"15.08848536","RCS_SIZE":"LARGE","PERIAPSIS":"538.843","APOAPSIS":"540.595","REF_FRAME":"TEME","ECCENTRICITY":"0.00012660","DECAY_DATE":null,"OBJECT_ID":"2022-136AG","TLE_LINE2":"2 54081  53.2180  59.1631 0001266  87.0244 273.0893 15.08848536 27227","MEAN_ANOMALY":"273.0893","TIME_SYSTEM":"UTC","REV_AT_EPOCH":"2722","GP_ID":"230026783","SEMIMAJOR_AXIS":"6917.854","OBJECT_NAME":"STARLINK-5165","EPOCH":"2023-04-13T06:28:08.211072","NORAD_CAT_ID":"54081","LAUNCH_DATE":"2022-10-20","SITE":"AFETR","CLASSIFICATION_TYPE":"U"},{"LAUNCH_DATE":"2022-10-20","SITE":"AFETR","CLASSIFICATION_TYPE":"U","EPOCH":"2023-04-13T14:30:22.176576","NORAD_CAT_ID":"54082","OBJECT_NAME":"STARLINK-5210","MEAN_ANOMALY":"273.9352","TIME_SYSTEM":"UTC","REV_AT_EPOCH":"2727","GP_ID":"230017684","SEMIMAJOR_AXIS":"6917.875","DECAY_DATE":null,"OBJECT_ID":"2022-136AH","TLE_LINE2":"2 54082  53.2179  57.6996 0001165  86.1773 273.9352 15.08841847 27270","REF_FRAME":"TEME","ECCENTRICITY":"0.00011650","APOAPSIS":"540.546","TLE_LINE1":"1 54082U 22136AH  23103.60442334  .00000681  00000-0  60845-4 0  9990","RCS_SIZE":"LARGE","MEAN_MOTION":"15.08841847","PERIAPSIS":"538.934","MEAN_MOTION_DDOT":"0.0000000000000","EPHEMERIS_TYPE":"0","ARG_OF_PERICENTER":"86.1773","MEAN_MOTION_DOT":"0.00000681","INCLINATION":"53.2179","PERIOD":"95.437","OBJECT_TYPE":"PAYLOAD","FILE":"3886584","ELEMENT_SET_NO":"999","RA_OF_ASC_NODE":"57.6996","CENTER_NAME":"EARTH","COUNTRY_CODE":"US","BSTAR":"0.00006084500000","MEAN_ELEMENT_THEORY":"SGP4"}];
